IRIDIUM 166             
1 43570U 18061B   25037.65948228  .00000515  00000+0  17670-3 0  9990
2 43570  86.3930 263.7868 0002413  84.3690 275.7781 14.34216850342370
IRIDIUM 158             
1 43571U 18061C   25037.62775301  .00000493  00000+0  16907-3 0  9995
2 43571  86.3930 263.8097 0002119  92.5021 267.6417 14.34214077342340
IRIDIUM 165             
1 43572U 18061D   25037.65313118  .00000066  00000+0  16537-4 0  9999
2 43572  86.3930 263.8359 0002102  81.4724 278.6710 14.34217519342365
IRIDIUM 155             
1 43573U 18061E   25037.68484417  .00000296  00000+0  98591-4 0  9999
2 43573  86.3926 263.7163 0002338  92.5480 267.5984 14.34217190342338
IRIDIUM 154             
1 43574U 18061F   25037.73558497  .00000239  00000+0  78267-4 0  9991
2 43574  86.3930 263.8042 0002046  85.1768 274.9661 14.34218160342392
IRIDIUM 163             
1 43575U 18061G   25037.71655672  .00000102  00000+0  29504-4 0  9992
2 43575  86.3929 263.7431 0001989  90.4341 269.7083 14.34217761342366
IRIDIUM 156             
1 43576U 18061H   25037.69117112  .00000368  00000+0  12439-3 0  9994
2 43576  86.3930 263.7606 0002481  89.6817 270.4663 14.34214650342355
IRIDIUM 164             
1 43577U 18061J   25037.60238209  .00000128  00000+0  38730-4 0  9994
2 43577  86.3928 263.8301 0002064  79.6885 280.4543 14.34212587342385
